#dP2020  2  6  0  0  0.00000000      97 __u+U IGS08 FIT  IAC
## 2091 345600.00000000   900.00000000 58885 0.0000000000000
+  115   C01C02C03C04C05C06C07C08C09C10C11C12C13C14C16C19C20
+        C21C22C23C24C25C26C27C28C29C30C32C33C34C35C36C37E01
+        E02E03E04E05E07E08E09E11E12E13E14E15E18E19E21E24E25
+        E26E27E30E31E33E36G01G02G03G04G05G06G07G08G09G10G11
+        G12G13G14G15G16G17G18G19G20G21G22G23G24G25G26G27G28
+        G29G30G31G32J01J02J03J07R01R02R03R04R05R07R08R09R11
+        R12R13R14R15R16R17R18R19R20R21R22R23R26  0  0  0  0
++        15 13 13 13 12 10  8  8  7  8  7  7  8  7  8  7  7
++         7  7  7  7  7  7  7  7  7  7  8  7  7  8  8  8  4
++         4  4  4  4  4  4  4  4  4  4  4  4  4  4  4  4  4
++         4  4  4  4  4  4  3  3  3  3  3  3  3  3  3  3  3
++         3  3  3  3  3  3  3  3  3  3  3  3  3  3  3  3  3
++         3  3  3  3  8  8  8 14  6  5  5  5  5  5  5  5  5
++         5  6  5  5  6  5  5  6  6  5  5  5  8  0  0  0  0
%c M  cc GPS ccc cccc cccc cccc cccc ccccc ccccc ccccc ccccc
%c cc cc ccc ccc cccc cccc cccc cccc ccccc ccccc ccccc ccccc
%f  1.2500000  1.025000000  0.00000000000  0.000000000000000
%f  0.0000000  0.000000000  0.00000000000  0.000000000000000
%i    0    0    0    0      0      0      0      0         0
%i    0    0    0    0      0      0      0      0         0
/* INFORMATION & ANALYSIS CENTER (IAC)            FINAL DATA
/* S/V CLOCKS ARE ALIGNED TO GNSS TIME                      
/* G:C1WC2W R:C1PC2P E:C1XC5X C:C2IC6I J:C1CC2S             
/* PCV:IGS14_2091 OL/AL:FES2004  NONE     YN ORB:CoN CLK:CoN
*  2020 02 06 20 45  0.00000000
PC01 -32267.923595  27136.234556   -521.275466 999999.999999
PC02   4463.307442  41931.981751   1212.100433    561.683326
PC03 -14875.648146  39478.733078    611.257393 999999.999999
PC04 -39606.101359  14403.973681   -161.176997   -422.869002
PC05  21888.036703  36052.530731   1360.337675   -301.972980
PC06 -12682.778612  38932.950116  11265.072028    249.150292
PC07 -10377.821256  24055.585379 -32802.754120    -52.644280
PC08 -24487.757372  25949.247975  22290.013330   -108.555286
PC09  -5620.115072  41958.205239  -1394.927163    315.545640
PC10   3547.838318  29558.253622 -29540.839230   -634.768656
PC11   9813.553872 -26002.460889  -2731.942065   -166.494956
PC12  17619.744392 -15879.633744  14762.518669    316.329753
PC13 -10858.220306  27213.357588  30313.315364    251.312025
PC14    646.693220 -20794.289513 -18597.029700    136.084926
PC16 -10789.717809  39730.465150   9602.333220   -796.322618
PC19   7563.684640  23992.863447  12088.278803    318.650790
PC20  -8242.675465  14737.430820  22227.745145   -670.569235
PC21  19643.513379   3612.032096 -19466.665887    -50.439415
PC22  19239.133067  19479.481628  -5324.810637   -806.058422
PC23 -20274.328356  -9693.410836  16539.905486   -885.194101
PC24  19335.363114 -12994.334997  15375.125620   -918.910430
PC25  -1515.808292 -16062.868927  22763.517051   -507.100217
PC26  27711.855515  -3437.542782   -238.664604    561.831298
PC27 -18216.400052   6287.426825 -20200.651215    273.909939
PC28 -10503.006434 -13630.772900 -21961.554738    264.846500
PC29  -2308.997977  25586.696393  10902.581606    184.170822
PC30 -14502.312130  22850.848019  -6848.184614    267.962459
PC32 -19694.677555  -3455.169786  19480.523776   -865.825396
PC33  -7648.661973 -23962.539547 -12096.177189   -874.605988
PC34  14406.341322 -22989.957467   6476.445899   -450.084478
PC35  10923.115246  13445.448519  21890.783790   -847.864976
PC36    915.675497  16102.071345 -22753.979528   -833.756785
PC37 -27781.433330   2387.120983    842.647649   -889.717882
PE01 -19140.854687 -16759.236554  15121.653357   -789.409461
PE02  19223.731772  16743.560187 -15062.040617    110.947508
PE03  12101.856590  25414.610162  -9138.728112   -263.406262
PE04 -17843.758817  -8086.307411  22190.024766   -460.646364
PE05   -805.473456  28046.694539   9425.476087   -407.617580
PE07  13150.418044 -14271.868536 -22351.057279   -337.369753
PE08  17774.090378   7765.107417 -22358.221596   6224.027824
PE09 -12893.139073  14386.952677  22423.260576   6164.584991
PE11 -23139.520177  18117.397890  -3614.021429   1140.725354
PE12 -21659.761519   1926.882170 -20079.718773   5964.175682
PE13  23127.194714 -18058.155562   3890.166124    398.114158
PE14 -12255.982183  24064.421429 -10702.296335   -895.728666
PE15  21691.118685  -2228.742099  20030.672360    878.194046
PE18    532.489847 -28239.548961  -4717.975747   -992.918099
PE19 -10945.128206 -26530.401069   7238.919104     -1.648084
PE21   1320.238739 -16641.505036  24439.171949   -581.239964
PE24 -21291.760901   6696.231415 -19441.576635   5623.700186
PE25  -1428.719879  16616.106377 -24452.954026   -503.230116
PE26  10835.374396 -23277.088779 -14718.222709   3559.439993
PE27  21232.029978  -6789.642051  19481.835222    287.825910
PE30  28551.537424   7273.501986   2934.621160   4164.169796
PE31 -28587.504016  -7009.333593  -3100.282542   -471.612290
PE33  -7527.582923 -14910.322644 -24421.404657   -470.519171
PE36 -10980.225071  23317.568091  14576.094079    601.639283
PG01   4908.491634 -17060.079199 -19851.460439   -286.637847
PG02 -21883.155519  14771.083509   3021.940016   -400.005597
PG03  -7046.796556 -19183.111934 -17071.783422    -88.622664
PG04    235.344590 -26281.219505   3758.200248    -45.162226
PG05 -13993.489535   8585.874469  20778.957939     -7.204700
PG06 -24546.587922   5322.502111  -8642.464901   -201.924496
PG07 -13484.766067 -10119.089442  20911.551787   -208.743079
PG08   6465.056462 -24614.330830   7175.964465    -22.851656
PG09  -7753.944164 -21904.910220  12795.978930   -149.730777
PG10  23575.184790  10566.468953  -6593.624120   -236.127570
PG11   9026.875194 -23463.527245  -9489.714847   -368.585577
PG12   2753.921214  18545.855089 -19109.238719    154.111193
PG13 -12909.288487  19301.658322  12695.894897    -14.702926
PG14  15410.285844  -6005.147764 -20410.338574    -34.100242
PG15  -3846.092452  25312.969767   5960.901840   -253.375877
PG16  14643.897865  -6279.115553  21128.937482   -121.664549
PG17 -13725.439394  -5670.381886 -21599.599465    211.645170
PG18  12438.471847 -18611.999530 -14730.105619      1.232525
PG19 -15325.336057   3075.120941 -21767.620910   -202.224444
PG20  21630.346966  14877.539879   4615.929628    527.852185
PG21  15133.675362   8539.207433  20822.065168    -44.801302
PG22   1049.446937 -16846.775658 -20308.469862   -784.044034
PG23  -2221.672213 -25845.891991   5006.933047   -138.103672
PG24  -6051.131843  18521.220511 -18080.171175     -8.676170
PG25  14948.795590  19388.463750 -10859.287166    -14.027585
PG26  21161.859577   -199.036012  16153.616588    143.013462
PG27  12164.104165 -16953.681905  16114.265589   -203.504091
PG28 -22234.919882 -11815.716720  -7631.113896    740.834700
PG29   5056.864711  22835.372780  12537.063577    -26.536228
PG30 -22083.145299  -2209.231024  14765.235759   -147.002632
PG31  25280.004746  -6587.005916  -6045.331965    -21.505632
PG32  14880.825495   4427.880280 -21495.820594    205.483648
PJ01 -24301.490232  24151.430646  29637.462605   -325.316914
PJ02 -32375.434930  14682.622933 -18220.689744     -1.172039
PJ03 -22179.533955  32254.470972 -10907.453429     -0.380696
PJ07 -25344.451653  33705.458494     25.319561     -0.099148
PR01  14193.299372   6347.075183 -20219.088946     56.700108
PR02   4103.812621 -14107.625590 -20800.018471    410.626218
PR03  -7175.441033 -23164.599106  -7794.808263      9.580334
PR04 -14237.441646 -18906.839178   9531.698126     37.890160
PR05 -13148.085294  -3972.385878  21496.127844     44.534532
PR07   7452.176538  23296.129336   7347.515650    -32.890681
PR08  14204.707475  18986.450062  -9373.242414    -50.375764
PR09 -12056.583882   9242.393704 -20499.167338    115.439574
PR11  20853.237420   7509.301228 -12580.274150    -12.593169
PR12  25237.963107   -102.685192   3827.828342    103.457655
PR13  15095.351143  -8096.821289  18881.564449    -34.464216
PR14  -3758.910805 -11140.418715  22644.812034     47.866474
PR15 -20267.832933  -7812.657359  13382.476261    105.866869
PR16 -25073.979166    819.293265  -4252.168736     -1.355133
PR17   6105.932007 -20400.528169 -14052.891653    298.788686
PR18  -6164.334931  -9310.177402 -22906.592097     24.209386
PR19 -15119.125965   6013.932354 -19636.488938    -77.794043
PR20 -15940.075155  19684.009986  -3211.377510   -403.425737
PR21  -5535.598158  20010.511877  14811.166462   -103.200797
PR22   7886.000601   6953.643002  23255.883179    -12.931552
PR23  16548.201289 -11806.138334  15406.254376    284.707616
PR26 -16426.733502  18057.554108  -7339.921402   -408.518478
EOF
